     2.01           GLONASS NAV DATA                        RINEX VERSION / TYPE
CCRINEXG V1.4 UX    CDDIS               08-SEP-16 17:37     PGM / RUN BY / DATE 
IGS BROADCAST EPHEMERIS FILE                                COMMENT             
teqc  2009Mar23                         20160908  0:25:     COMMENT             
  2016     9     7    0.123400241137D-06                    CORR TO SYSTEM TIME 
    17                                                      LEAP SECONDS        
                                                            END OF HEADER       
19 16  9  7  9 15  0.0-0.163786113262D-03 0.000000000000D+00 0.324300000000D+05
    0.880750439453D+04-0.202757263184D+01 0.000000000000D+00 0.000000000000D+00
    0.602259277344D+04 0.244474220276D+01 0.000000000000D+00 0.300000000000D+01
    0.231622319336D+05 0.134831428528D+00-0.186264514923D-08 0.000000000000D+00
20 16  9  7  9 15  0.0-0.251978635788D-03-0.181898940355D-11 0.324300000000D+05
    0.175849003906D+05-0.146473121643D+01 0.000000000000D+00 0.000000000000D+00
   -0.102015717773D+05 0.152574062347D+01-0.186264514923D-08 0.200000000000D+01
    0.153740771484D+05 0.269174575806D+01 0.000000000000D+00 0.000000000000D+00
21 16  9  7  9 15  0.0 0.805566087365D-04 0.181898940355D-11 0.324300000000D+05
    0.156719335938D+05-0.950803756714D-01 0.000000000000D+00 0.000000000000D+00
   -0.201346767578D+05-0.195743560791D+00-0.186264514923D-08 0.400000000000D+01
   -0.690313964844D+03 0.358120632172D+01 0.931322574616D-09 0.000000000000D+00
22 16  9  7  9 15  0.0 0.211426988244D-03 0.000000000000D+00 0.324000000000D+05
    0.454260839844D+04 0.136496067047D+01-0.000000000000D+00 0.000000000000D+00
   -0.182992167969D+05-0.191729831696D+01-0.931322574616D-09-0.300000000000D+01
   -0.171160288086D+05 0.242426300049D+01 0.186264514923D-08 0.000000000000D+00
23 16  9  7  9 15  0.0 0.208998098969D-04 0.000000000000D+00 0.331800000000D+05
   -0.975286035156D+04 0.198602199554D+01-0.000000000000D+00 0.000000000000D+00
   -0.484210888672D+04-0.245630836487D+01-0.000000000000D+00 0.300000000000D+01
   -0.230808754883D+05-0.324386596680D+00 0.186264514923D-08 0.000000000000D+00
24 16  9  7  9 15  0.0-0.140613876283D-03-0.000000000000D+00 0.324000000000D+05
   -0.173367729492D+05 0.147187995911D+01 0.000000000000D+00 0.000000000000D+00
    0.997285302734D+04-0.159843158722D+01 0.186264514923D-08 0.200000000000D+01
   -0.158663735352D+05-0.261735725403D+01 0.931322574616D-09 0.000000000000D+00
 1 16  9  7  9 45  0.0-0.140246003866D-03 0.000000000000D+00 0.342300000000D+05
   -0.147557553711D+05-0.517021179199D+00 0.000000000000D+00 0.000000000000D+00
   -0.199779072266D+05-0.626026153564D+00-0.279396772385D-08 0.100000000000D+01
    0.585531738281D+04-0.344032478332D+01 0.000000000000D+00 0.000000000000D+00
 2 16  9  7  9 45  0.0 0.209345482290D-03 0.181898940355D-11 0.342000000000D+05
   -0.141822016602D+05-0.144350433350D+01 0.000000000000D+00 0.000000000000D+00
   -0.535966162109D+04-0.240534400940D+01-0.186264514923D-08-0.400000000000D+01
    0.205400449219D+05-0.163116550446D+01-0.186264514923D-08 0.000000000000D+00
 3 16  9  7  9 45  0.0 0.791838392615D-04 0.909494701773D-12 0.342000000000D+05
   -0.527685498047D+04-0.142418193817D+01 0.931322574616D-09 0.000000000000D+00
    0.119657075195D+05-0.263317584992D+01 0.000000000000D+00 0.500000000000D+01
    0.219476616211D+05 0.109202766418D+01-0.279396772385D-08 0.000000000000D+00
 4 16  9  7  9 45  0.0 0.183608382940D-03 0.909494701773D-12 0.342300000000D+05
    0.700441503906D+04-0.561059951782D+00 0.000000000000D+00 0.000000000000D+00
    0.223102177734D+05-0.128712272644D+01 0.186264514923D-08 0.600000000000D+01
    0.102254584961D+05 0.319690322876D+01-0.186264514923D-08 0.000000000000D+00
 5 16  9  7  9 45  0.0-0.329399481416D-04-0.181898940355D-11 0.342300000000D+05
    0.150264599609D+05 0.580764770508D+00 0.000000000000D+00 0.000000000000D+00
    0.194484462891D+05 0.742533683777D+00 0.279396772385D-08 0.100000000000D+01
   -0.682252246094D+04 0.339831924439D+01 0.000000000000D+00 0.000000000000D+00
 6 16  9  7  9 45  0.0 0.957231968641D-04 0.000000000000D+00 0.358200000000D+05
    0.141385522461D+05 0.147286796570D+01 0.000000000000D+00 0.000000000000D+00
    0.437456298828D+04 0.243229293823D+01 0.931322574616D-09-0.400000000000D+01
   -0.207920883789D+05 0.151098251343D+01 0.186264514923D-08 0.000000000000D+00
 7 16  9  7  9 45  0.0-0.107558444142D-04-0.000000000000D+00 0.342000000000D+05
    0.508887060547D+04 0.142465209961D+01-0.000000000000D+00 0.000000000000D+00
   -0.121578969727D+05 0.263440608978D+01-0.000000000000D+00 0.500000000000D+01
   -0.217978886719D+05-0.113742065430D+01 0.279396772385D-08 0.000000000000D+00
 8 16  9  7  9 45  0.0-0.269785523415D-04 0.000000000000D+00 0.342300000000D+05
   -0.668691455078D+04 0.592963218689D+00 0.000000000000D+00 0.000000000000D+00
   -0.221970585938D+05 0.134131145477D+01-0.186264514923D-08 0.600000000000D+01
   -0.105966206055D+05-0.316698265076D+01 0.186264514923D-08 0.000000000000D+00
 9 16  9  7  9 45  0.0 0.245543196797D-04 0.181898940355D-11 0.342300000000D+05
    0.254021337891D+05 0.276748657227D+00 0.000000000000D+00 0.000000000000D+00
   -0.276826171875D+02-0.149384498596D+00 0.000000000000D+00-0.600000000000D+01
    0.201377539062D+04-0.356115913391D+01 0.000000000000D+00 0.000000000000D+00
10 16  9  7  9 45  0.0-0.260500237346D-04-0.272848410532D-11 0.342300000000D+05
    0.171926699219D+05 0.237577915192D+01 0.000000000000D+00 0.000000000000D+00
   -0.742372412109D+04-0.921306610107D-01-0.931322574616D-09-0.700000000000D+01
    0.172577324219D+05-0.241214656830D+01-0.931322574616D-09 0.000000000000D+00
11 16  9  7  9 45  0.0 0.169035047293D-04 0.000000000000D+00 0.342300000000D+05
   -0.675956054688D+03 0.315241432190D+01 0.000000000000D+00 0.000000000000D+00
   -0.108988056641D+05 0.107337951660D+00-0.186264514923D-08 0.000000000000D+00
    0.230725927734D+05 0.138772964478D+00-0.931322574616D-09 0.000000000000D+00
12 16  9  7  9 45  0.0-0.437470152974D-04 0.909494701773D-12 0.342000000000D+05
   -0.200697612305D+05 0.194616699219D+01 0.000000000000D+00 0.000000000000D+00
   -0.693464160156D+04 0.172879219055D+00-0.186264514923D-08-0.100000000000D+01
    0.142489956055D+05 0.280557060242D+01-0.931322574616D-09 0.000000000000D+00
13 16  9  7  9 45  0.0 0.588502734900D-05-0.000000000000D+00 0.342000000000D+05
   -0.254352436523D+05-0.265632629394D+00 0.000000000000D+00 0.000000000000D+00
    0.657360351562D+03 0.201132774353D+00-0.000000000000D+00-0.200000000000D+01
   -0.193925830078D+04 0.357533550263D+01-0.000000000000D+00 0.000000000000D+00
14 16  9  7  9 45  0.0 0.370973721147D-03 0.545696821064D-11 0.342000000000D+05
   -0.160115371094D+05-0.249877166748D+01 0.000000000000D+00 0.000000000000D+00
    0.793142480469D+04 0.905179977417D-01 0.931322574616D-09-0.700000000000D+01
   -0.182589301758D+05 0.222463417053D+01 0.931322574616D-09 0.000000000000D+00
15 16  9  7  9 45  0.0 0.111628323793D-04-0.000000000000D+00 0.357300000000D+05
   -0.902815917969D+03-0.318468093872D+01-0.000000000000D+00 0.000000000000D+00
    0.105118535156D+05-0.667257308960D-01 0.186264514923D-08 0.000000000000D+00
   -0.232101035156D+05 0.101798057556D+00 0.186264514923D-08 0.000000000000D+00
16 16  9  7  9 45  0.0 0.431723892689D-04 0.181898940355D-11 0.342300000000D+05
    0.186519907227D+05-0.214485073090D+01 0.000000000000D+00 0.000000000000D+00
    0.760966503906D+04-0.161837577820D+00 0.186264514923D-08-0.100000000000D+01
   -0.157267651367D+05-0.261580753326D+01 0.931322574616D-09 0.000000000000D+00
17 16  9  7  9 45  0.0-0.282870605588D-04 0.000000000000D+00 0.342000000000D+05
   -0.150438984375D+05 0.534278869629D+00 0.931322574616D-09 0.000000000000D+00
    0.198500151367D+05-0.543642997742D+00 0.186264514923D-08 0.400000000000D+01
   -0.541115380859D+04-0.348232364654D+01-0.000000000000D+00 0.000000000000D+00
18 16  9  7  9 45  0.0 0.117502175272D-03 0.181898940355D-11 0.342300000000D+05
   -0.700354931641D+04-0.648099899292D+00 0.931322574616D-09 0.000000000000D+00
    0.217911660156D+05 0.141803169251D+01 0.186264514923D-08-0.300000000000D+01
    0.113284052734D+05-0.312425804138D+01-0.186264514923D-08 0.000000000000D+00
19 16  9  7  9 45  0.0-0.163787044585D-03 0.000000000000D+00 0.342300000000D+05
    0.552462451172D+04-0.159286785126D+01 0.000000000000D+00 0.000000000000D+00
    0.106429375000D+05 0.264389896393D+01 0.000000000000D+00 0.300000000000D+01
    0.225058618164D+05-0.859407424927D+00-0.186264514923D-08 0.000000000000D+00
20 16  9  7  9 45  0.0-0.251982361078D-03-0.181898940355D-11 0.342300000000D+05
    0.148582294922D+05-0.151924133301D+01 0.000000000000D+00 0.000000000000D+00
   -0.682071484375D+04 0.221406364441D+01-0.931322574616D-09 0.200000000000D+01
    0.195609155273D+05 0.193011760712D+01-0.931322574616D-09 0.000000000000D+00
21 16  9  7  9 45  0.0 0.805594027042D-04 0.181898940355D-11 0.343500000000D+05
    0.150430844727D+05-0.566499710083D+00 0.000000000000D+00 0.000000000000D+00
   -0.198142856445D+05 0.570660591126D+00-0.186264514923D-08 0.400000000000D+01
    0.569935205078D+04 0.347239112854D+01 0.000000000000D+00 0.000000000000D+00
22 16  9  7  9 45  0.0 0.211427919567D-03 0.000000000000D+00 0.359100000000D+05
    0.641221630859D+04 0.719415664673D+00-0.931322574616D-09 0.000000000000D+00
   -0.214293222656D+05-0.151429843903D+01-0.186264514923D-08-0.300000000000D+01
   -0.121436591797D+05 0.306467819214D+01 0.186264514923D-08 0.000000000000D+00
23 16  9  7  9 45  0.0 0.208998098969D-04 0.000000000000D+00 0.342000000000D+05
   -0.652140722656D+04 0.157619667053D+01-0.000000000000D+00 0.000000000000D+00
   -0.951153173828D+04-0.268776321411D+01-0.000000000000D+00 0.300000000000D+01
   -0.227664584961D+05 0.671469688416D+00 0.186264514923D-08 0.000000000000D+00
